H1 CPF  1  DGF 2022 07 20 11  7011 larets     NONE      
H2   304206 5557    27944 2022 07 20 00 00 00 2022 07 27 00 00 00    30 1 1  0 0 0
H5  0.0650
H9
10 0 59782  57600.000000  0      -3324608.663       2680967.366       5620768.160
10 0 59782  57630.000000  0      -3147838.870       2618328.908       5749971.410
10 0 59782  57660.000000  0      -2968165.145       2552260.986       5873312.767
10 0 59782  57690.000000  0      -2785784.164       2482818.141       5990666.405
10 0 59782  57720.000000  0      -2600895.095       2410059.190       6101912.581
10 0 59782  57750.000000  0      -2413699.374       2334047.179       6206937.759
10 0 59782  57780.000000  0      -2224400.479       2254849.326       6305634.719
10 0 59782  57810.000000  0      -2033203.710       2172536.960       6397902.664
10 0 59782  57840.000000  0      -1840315.962       2087185.460       6483647.314
10 0 59782  57870.000000  0      -1645945.502       1998874.184       6562780.999
10 0 59782  57900.000000  0      -1450301.746       1907686.395       6635222.744
10 0 59782  57930.000000  0      -1253595.034       1813709.185       6700898.350
10 0 59782  57960.000000  0      -1056036.404       1717033.387       6759740.466
10 0 59782  57990.000000  0       -857837.370       1617753.491       6811688.660
10 0 59782  58020.000000  0       -659209.692       1515967.550       6856689.477
10 0 59782  58050.000000  0       -460365.152       1411777.086       6894696.496
10 0 59782  58080.000000  0       -261515.326       1305286.987       6925670.375
10 0 59782  58110.000000  0        -62871.362       1196605.400       6949578.891
10 0 59782  58140.000000  0        135356.246       1085843.630       6966396.977
10 0 59782  58170.000000  0        332957.878        973116.016       6976106.746
10 0 59782  58200.000000  0        529725.012        858539.823       6978697.510
10 0 59782  58230.000000  0        725450.443        742235.119       6974165.795
10 0 59782  58260.000000  0        919928.498        624324.648       6962515.350
10 0 59782  58290.000000  0       1112955.258        504933.703       6943757.144
10 0 59782  58320.000000  0       1304328.764        384189.997       6917909.364
10 0 59782  58350.000000  0       1493849.240        262223.523       6884997.396
10 0 59782  58380.000000  0       1681319.291        139166.417       6845053.808
10 0 59782  58410.000000  0       1866544.120         15152.817       6798118.326
10 0 59782  58440.000000  0       2049331.727       -109681.286       6744237.798
10 0 59782  58470.000000  0       2229493.111       -235198.198       6683466.151
10 0 59782  58500.000000  0       2406842.471       -361258.667       6615864.346
10 0 59782  58530.000000  0       2581197.399       -487722.045       6541500.321
10 0 59782  58560.000000  0       2752379.076       -614446.432       6460448.929
10 0 59782  58590.000000  0       2920212.456       -741288.847       6372791.869
10 0 59782  58620.000000  0       3084526.454       -868105.380       6278617.611
10 0 59782  58650.000000  0       3245154.122       -994751.360       6178021.318
10 0 59782  58680.000000  0       3401932.832      -1121081.524       6071104.748
10 0 59782  58710.000000  0       3554704.443      -1246950.179       5957976.157
10 0 59782  58740.000000  0       3703315.463      -1372211.377       5838750.198
10 0 59782  58770.000000  0       3847617.212      -1496719.077       5713547.807
10 0 59782  58800.000000  0       3987465.978      -1620327.321       5582496.088
10 0 59782  58830.000000  0       4122723.165      -1742890.406       5445728.190
10 0 59782  58860.000000  0       4253255.442      -1864263.054       5303383.177
10 0 59782  58890.000000  0       4378934.877      -1984300.587       5155605.894
10 0 59782  58920.000000  0       4499639.076      -2102859.100       5002546.822
10 0 59782  58950.000000  0       4615251.313      -2219795.642       4844361.936
10 0 59782  58980.000000  0       4725660.648      -2334968.381       4681212.539
10 0 59782  59010.000000  0       4830762.050      -2448236.791       4513265.109
10 0 59782  59040.000000  0       4930456.496      -2559461.814       4340691.124
10 0 59782  59070.000000  0       5024651.083      -2668506.043       4163666.889
10 0 59782  59100.000000  0       5113259.120      -2775233.888       3982373.359
10 0 59782  59130.000000  0       5196200.214      -2879511.751       3796995.945
10 0 59782  59160.000000  0       5273400.353      -2981208.188       3607724.323
10 0 59782  59190.000000  0       5344791.973      -3080194.084       3414752.240
10 0 59782  59220.000000  0       5410314.029      -3176342.810       3218277.311
10 0 59782  59250.000000  0       5469912.044      -3269530.392       3018500.814
10 0 59782  59280.000000  0       5523538.165      -3359635.667       2815627.480
10 0 59782  59310.000000  0       5571151.199      -3446540.445       2609865.275
10 0 59782  59340.000000  0       5612716.651      -3530129.660       2401425.190
10 0 59782  59370.000000  0       5648206.746      -3610291.525       2190521.016
10 0 59782  59400.000000  0       5677600.456      -3686917.685       1977369.118
10 0 59782  59430.000000  0       5700883.506      -3759903.356       1762188.202
10 0 59782  59460.000000  0       5718048.372      -3829147.473       1545199.080
10 0 59782  59490.000000  0       5729094.279      -3894552.816       1326624.436
10 0 59782  59520.000000  0       5734027.176      -3956026.146       1106688.588
10 0 59782  59550.000000  0       5732859.723      -4013478.327        885617.255
10 0 59782  59580.000000  0       5725611.254      -4066824.454        663637.315
10 0 59782  59610.000000  0       5712307.747      -4115983.971        440976.563
10 0 59782  59640.000000  0       5692981.773      -4160880.789        217863.466
10 0 59782  59670.000000  0       5667672.440      -4201443.388         -5473.087
10 0 59782  59700.000000  0       5636425.331      -4237604.920       -228804.027
10 0 59782  59730.000000  0       5599292.428      -4269303.305       -451900.355
10 0 59782  59760.000000  0       5556332.036      -4296481.313       -674533.377
10 0 59782  59790.000000  0       5507608.697      -4319086.656       -896474.953
10 0 59782  59820.000000  0       5453193.100      -4337072.062      -1117497.738
10 0 59782  59850.000000  0       5393161.980      -4350395.353      -1337375.424
10 0 59782  59880.000000  0       5327598.003      -4359019.505      -1555882.987
10 0 59782  59910.000000  0       5256589.658      -4362912.706      -1772796.916
10 0 59782  59940.000000  0       5180231.130      -4362048.411      -1987895.452
10 0 59782  59970.000000  0       5098622.174      -4356405.386      -2200958.819
10 0 59782  60000.000000  0       5011867.983      -4345967.753      -2411769.453
10 0 59782  60030.000000  0       4920079.048      -4330725.018      -2620112.233
10 0 59782  60060.000000  0       4823371.012      -4310672.105      -2825774.699
10 0 59782  60090.000000  0       4721864.519      -4285809.369      -3028547.283
10 0 59782  60120.000000  0       4615685.058      -4256142.613      -3228223.516
10 0 59782  60150.000000  0       4504962.795      -4221683.090      -3424600.243
10 0 59782  60180.000000  0       4389832.415      -4182447.509      -3617477.828
10 0 59782  60210.000000  0       4270432.945      -4138458.023      -3806660.356
10 0 59782  60240.000000  0       4146907.585      -4089742.223      -3991955.831
10 0 59782  60270.000000  0       4019403.526      -4036333.117      -4173176.370
10 0 59782  60300.000000  0       3888071.770      -3978269.102      -4350138.392
10 0 59782  60330.000000  0       3753066.943      -3915593.937      -4522662.798
10 0 59782  60360.000000  0       3614547.106      -3848356.700      -4690575.148
10 0 59782  60390.000000  0       3472673.563      -3776611.747      -4853705.829
10 0 59782  60420.000000  0       3327610.669      -3700418.661      -5011890.224
10 0 59782  60450.000000  0       3179525.633      -3619842.199      -5164968.866
10 0 59782  60480.000000  0       3028588.321      -3534952.225      -5312787.588
10 0 59782  60510.000000  0       2874971.054      -3445823.651      -5455197.674
10 0 59782  60540.000000  0       2718848.415      -3352536.360      -5592055.990
10 0 59782  60570.000000  0       2560397.045      -3255175.135      -5723225.125
10 0 59782  60600.000000  0       2399795.444      -3153829.573      -5848573.521
10 0 59782  60630.000000  0       2237223.764      -3048594.001      -5967975.589
10 0 59782  60660.000000  0       2072863.611      -2939567.382      -6081311.836
10 0 59782  60690.000000  0       1906897.837      -2826853.220      -6188468.970
10 0 59782  60720.000000  0       1739510.334      -2710559.454      -6289340.008
10 0 59782  60750.000000  0       1570885.831      -2590798.349      -6383824.373
10 0 59782  60780.000000  0       1401209.689      -2467686.382      -6471827.980
10 0 59782  60810.000000  0       1230667.695      -2341344.123      -6553263.321
10 0 59782  60840.000000  0       1059445.865      -2211896.118      -6628049.540
10 0 59782  60870.000000  0        887730.239      -2079470.757      -6696112.503
10 0 59782  60900.000000  0        715706.684      -1944200.149      -6757384.858
10 0 59782  60930.000000  0        543560.696      -1806219.993      -6811806.095
10 0 59782  60960.000000  0        371477.198      -1665669.431      -6859322.596
10 0 59782  60990.000000  0        199640.354      -1522690.919      -6899887.676
10 0 59782  61020.000000  0         28233.368      -1377430.070      -6933461.624
10 0 59782  61050.000000  0       -142561.697      -1230035.517      -6960011.730
10 0 59782  61080.000000  0       -312564.113      -1080658.761      -6979512.314
10 0 59782  61110.000000  0       -481594.669       -929454.015      -6991944.747
10 0 59782  61140.000000  0       -649475.862       -776578.049      -6997297.463
10 0 59782  61170.000000  0       -816032.074       -622190.031      -6995565.967
99
